{"spkid": "50802143", "covariance": {"elements": [{"title": "eccentricity", "value": ".4345820004362499", "units": null, "name": "e", "sigma": 3.98811240601601e-08, "label": "e"}, {"label": "q", "name": "q", "sigma": 6.39337112398824e-08, "units": "au", "title": "perihelion distance", "value": ".9386378093044693"}, {"label": "tp", "units": "TDB", "value": "2458316.774443475757", "title": "time of perihelion passage", "name": "tp", "sigma": 1.40721647761441e-05}, {"name": "om", "sigma": 5.71960770476559e-05, "title": "longitude of the ascending node", "value": "237.0014256830942", "units": "deg", "label": "node"}, {"label": "peri", "title": "argument of perihelion", "value": "41.2493077882772", "units": "deg", "sigma": 5.86987886289279e-05, "name": "w"}, {"units": "deg", "title": "inclination", "value": "9.130065777159373", "sigma": 1.071084483084e-05, "name": "i", "label": "i"}], "data": [["1.590504056301878E-15", "-2.29238236753538E-15", "-1.899577653676598E-13", "5.026107912436929E-13", "-7.063153432898751E-13", "-1.310570076993927E-13"], ["-2.29238236753538E-15", "4.08751943290466E-15", "1.475361082082277E-13", "-9.947984847826831E-13", "1.07102273779942E-12", "2.975594124845626E-13"], ["-1.899577653676598E-13", "1.475361082082277E-13", "1.980258214869515E-10", "-2.749630182919975E-10", "4.24175810343614E-10", "7.060329778268525E-11"], ["5.026107912436929E-13", "-9.947984847826831E-13", "-2.749630182919975E-10", "3.271391229641396E-9", "-3.268856475281724E-9", "-2.871277410670235E-10"], ["-7.063153432898751E-13", "1.07102273779942E-12", "4.24175810343614E-10", "-3.268856475281724E-9", "3.445547786503555E-9", "2.807240468752519E-10"], ["-1.310570076993927E-13", "2.975594124845626E-13", "7.060329778268525E-11", "-2.871277410670235E-10", "2.807240468752519E-10", "1.147221969903323E-10"]], "labels": ["e", "q", "tp", "node", "peri", "i"], "epoch": "2458024.5"}, "elements": [{"label": "e", "title": "eccentricity", "value": ".4345292417207094", "units": null, "name": "e", "sigma": "3.9783E-8"}, {"label": "a", "sigma": "5.1945E-8", "name": "a", "title": "semi-major axis", "value": "1.66074997652183", "units": "au"}, {"name": "q", "sigma": "6.385E-8", "title": "perihelion distance", "value": ".9391055485361134", "units": "au", "label": "q"}, {"sigma": "1.0704E-5", "name": "i", "title": "inclination; angle with respect to x-y ecliptic plane", "value": "9.12315134596178", "units": "deg", "label": "i"}, {"label": "node", "name": "om", "sigma": "5.7238E-5", "title": "longitude of the ascending node", "value": "236.9108639832379", "units": "deg"}, {"name": "w", "sigma": "5.8735E-5", "value": "41.39485055425209", "title": "argument of perihelion", "units": "deg", "label": "peri"}, {"label": "M", "units": "deg", "value": "248.1889204007438", "title": "mean anomaly", "sigma": "5.943E-5", "name": "ma"}, {"units": "TDB", "value": "2461443.293552366185", "title": "time of perihelion passage", "sigma": ".00014039", "name": "tp", "label": "tp"}, {"units": "d", "value": "781.7264547046547", "title": "sidereal orbital period", "name": "per", "sigma": "3.6676E-5", "label": "period"}, {"label": "n", "name": "n", "sigma": "2.1606E-8", "units": "deg/d", "value": ".4605191468619445", "title": "mean motion"}, {"name": "ad", "sigma": "7.4516E-8", "units": "au", "value": "2.382394404507547", "title": "aphelion distance", "label": "Q"}], "epoch": "2461200.5"}